[{"OBJECT_NAME":"SL-8 R/B","OBJECT_ID":"1988-053B","EPOCH":"2026-03-20T10:35:46.586688","MEAN_MOTION":14.38922647,"ECCENTRICITY":0.00215497,"INCLINATION":74.045,"RA_OF_ASC_NODE":92.6458,"ARG_OF_PERICENTER":270.5389,"MEAN_ANOMALY":195.5849,"EPHEMERIS_TYPE":0,"CLASSIFICATION_TYPE":"U","NORAD_CAT_ID":19257,"ELEMENT_SET_NO":999,"REV_AT_EPOCH":97814,"BSTAR":9.4786633e-5,"MEAN_MOTION_DOT":2.66e-6,"MEAN_MOTION_DDOT":0},{"OBJECT_NAME":"COSMOS 1975","OBJECT_ID":"1988-093A","EPOCH":"2026-03-20T12:42:00.290592","MEAN_MOTION":15.28205545,"ECCENTRICITY":0.00130419,"INCLINATION":82.516,"RA_OF_ASC_NODE":106.8006,"ARG_OF_PERICENTER":127.8919,"MEAN_ANOMALY":232.3502,"EPHEMERIS_TYPE":0,"CLASSIFICATION_TYPE":"U","NORAD_CAT_ID":19573,"ELEMENT_SET_NO":999,"REV_AT_EPOCH":2106,"BSTAR":0.00020652071,"MEAN_MOTION_DOT":5.722e-5,"MEAN_MOTION_DDOT":0},{"OBJECT_NAME":"SL-14 R/B","OBJECT_ID":"1988-093B","EPOCH":"2026-03-20T09:09:18.355680","MEAN_MOTION":14.85668857,"ECCENTRICITY":0.00208783,"INCLINATION":82.5327,"RA_OF_ASC_NODE":32.0076,"ARG_OF_PERICENTER":7.2816,"MEAN_ANOMALY":108.8688,"EPHEMERIS_TYPE":0,"CLASSIFICATION_TYPE":"U","NORAD_CAT_ID":19574,"ELEMENT_SET_NO":999,"REV_AT_EPOCH":260,"BSTAR":5.3646777e-5,"MEAN_MOTION_DOT":4.91e-6,"MEAN_MOTION_DDOT":0},{"OBJECT_NAME":"SL-16 R/B","OBJECT_ID":"1988-102B","EPOCH":"2026-03-20T10:18:29.605248","MEAN_MOTION":14.16155874,"ECCENTRICITY":0.00147229,"INCLINATION":70.9988,"RA_OF_ASC_NODE":128.9005,"ARG_OF_PERICENTER":344.9058,"MEAN_ANOMALY":15.1624,"EPHEMERIS_TYPE":0,"CLASSIFICATION_TYPE":"U","NORAD_CAT_ID":19650,"ELEMENT_SET_NO":999,"REV_AT_EPOCH":92841,"BSTAR":-3.9674909e-5,"MEAN_MOTION_DOT":-1.26e-6,"MEAN_MOTION_DDOT":0},{"OBJECT_NAME":"INTERCOSMOS 24","OBJECT_ID":"1989-080A","EPOCH":"2026-03-20T06:53:49.664832","MEAN_MOTION":12.59572157,"ECCENTRICITY":0.1186692,"INCLINATION":82.6016,"RA_OF_ASC_NODE":97.5012,"ARG_OF_PERICENTER":268.1968,"MEAN_ANOMALY":78.3158,"EPHEMERIS_TYPE":0,"CLASSIFICATION_TYPE":"U","NORAD_CAT_ID":20261,"ELEMENT_SET_NO":999,"REV_AT_EPOCH":66813,"BSTAR":0.00014137,"MEAN_MOTION_DOT":4.76e-6,"MEAN_MOTION_DDOT":0},{"OBJECT_NAME":"SL-14 R/B","OBJECT_ID":"1989-080C","EPOCH":"2026-03-20T12:26:37.382208","MEAN_MOTION":12.5050507,"ECCENTRICITY":0.12308211,"INCLINATION":82.5967,"RA_OF_ASC_NODE":166.2374,"ARG_OF_PERICENTER":160.0075,"MEAN_ANOMALY":205.3979,"EPHEMERIS_TYPE":0,"CLASSIFICATION_TYPE":"U","NORAD_CAT_ID":20262,"ELEMENT_SET_NO":999,"REV_AT_EPOCH":66150,"BSTAR":0.00011660542,"MEAN_MOTION_DOT":4.11e-6,"MEAN_MOTION_DDOT":0},{"OBJECT_NAME":"DELTA 1 R/B","OBJECT_ID":"1989-089B","EPOCH":"2026-03-20T07:29:22.498944","MEAN_MOTION":14.50671687,"ECCENTRICITY":0.00707188,"INCLINATION":97.0697,"RA_OF_ASC_NODE":285.0606,"ARG_OF_PERICENTER":89.0718,"MEAN_ANOMALY":271.8582,"EPHEMERIS_TYPE":0,"CLASSIFICATION_TYPE":"U","NORAD_CAT_ID":20323,"ELEMENT_SET_NO":999,"REV_AT_EPOCH":89727,"BSTAR":8.4955568e-5,"MEAN_MOTION_DOT":3.1e-6,"MEAN_MOTION_DDOT":0},{"OBJECT_NAME":"ARIANE 40 R/B","OBJECT_ID":"1990-005H","EPOCH":"2026-03-20T14:01:51.784032","MEAN_MOTION":14.39877116,"ECCENTRICITY":0.00105388,"INCLINATION":98.306,"RA_OF_ASC_NODE":139.9203,"ARG_OF_PERICENTER":165.6883,"MEAN_ANOMALY":194.4606,"EPHEMERIS_TYPE":0,"CLASSIFICATION_TYPE":"U","NORAD_CAT_ID":20443,"ELEMENT_SET_NO":999,"REV_AT_EPOCH":89437,"BSTAR":8.1790974e-5,"MEAN_MOTION_DOT":2.15e-6,"MEAN_MOTION_DDOT":0},{"OBJECT_NAME":"DELTA 2 R/B(1)","OBJECT_ID":"1990-008B","EPOCH":"2026-03-20T03:34:54.803424","MEAN_MOTION":15.57257585,"ECCENTRICITY":0.00815089,"INCLINATION":35.6026,"RA_OF_ASC_NODE":106.1373,"ARG_OF_PERICENTER":355.6437,"MEAN_ANOMALY":4.3584,"EPHEMERIS_TYPE":0,"CLASSIFICATION_TYPE":"U","NORAD_CAT_ID":20453,"ELEMENT_SET_NO":999,"REV_AT_EPOCH":92776,"BSTAR":0.0006206102,"MEAN_MOTION_DOT":0.00054938,"MEAN_MOTION_DDOT":0},{"OBJECT_NAME":"COSMOS 2058","OBJECT_ID":"1990-010A","EPOCH":"2026-03-20T08:58:04.793376","MEAN_MOTION":15.11408789,"ECCENTRICITY":0.0007944,"INCLINATION":82.4676,"RA_OF_ASC_NODE":36.8994,"ARG_OF_PERICENTER":306.0786,"MEAN_ANOMALY":53.9708,"EPHEMERIS_TYPE":0,"CLASSIFICATION_TYPE":"U","NORAD_CAT_ID":20465,"ELEMENT_SET_NO":999,"REV_AT_EPOCH":94385,"BSTAR":0.00020194,"MEAN_MOTION_DOT":3.44e-5,"MEAN_MOTION_DDOT":0},{"OBJECT_NAME":"SL-14 R/B","OBJECT_ID":"1990-010B","EPOCH":"2026-03-20T11:28:46.911072","MEAN_MOTION":14.83578063,"ECCENTRICITY":0.00183278,"INCLINATION":82.4987,"RA_OF_ASC_NODE":257.2514,"ARG_OF_PERICENTER":263.9518,"MEAN_ANOMALY":95.9609,"EPHEMERIS_TYPE":0,"CLASSIFICATION_TYPE":"U","NORAD_CAT_ID":20466,"ELEMENT_SET_NO":999,"REV_AT_EPOCH":93008,"BSTAR":4.4651738e-5,"MEAN_MOTION_DOT":3.92e-6,"MEAN_MOTION_DDOT":0},{"OBJECT_NAME":"SL-14 R/B","OBJECT_ID":"1990-018B","EPOCH":"2026-03-20T15:23:49.063776","MEAN_MOTION":14.82155847,"ECCENTRICITY":0.00174275,"INCLINATION":82.5224,"RA_OF_ASC_NODE":212.8541,"ARG_OF_PERICENTER":58.808,"MEAN_ANOMALY":301.4839,"EPHEMERIS_TYPE":0,"CLASSIFICATION_TYPE":"U","NORAD_CAT_ID":20511,"ELEMENT_SET_NO":999,"REV_AT_EPOCH":92420,"BSTAR":5.3067093e-5,"MEAN_MOTION_DOT":4.47e-6,"MEAN_MOTION_DDOT":0},{"OBJECT_NAME":"HST","OBJECT_ID":"1990-037B","EPOCH":"2026-03-20T09:10:17.245920","MEAN_MOTION":15.29639663,"ECCENTRICITY":0.0001527,"INCLINATION":28.4724,"RA_OF_ASC_NODE":327.0513,"ARG_OF_PERICENTER":242.0595,"MEAN_ANOMALY":117.9847,"EPHEMERIS_TYPE":0,"CLASSIFICATION_TYPE":"U","NORAD_CAT_ID":20580,"ELEMENT_SET_NO":999,"REV_AT_EPOCH":77495,"BSTAR":0.00019089699,"MEAN_MOTION_DOT":5.871e-5,"MEAN_MOTION_DDOT":0},{"OBJECT_NAME":"SL-16 R/B","OBJECT_ID":"1990-046B","EPOCH":"2026-03-20T05:31:36.326784","MEAN_MOTION":14.15012018,"ECCENTRICITY":0.0016211,"INCLINATION":70.9954,"RA_OF_ASC_NODE":275.7753,"ARG_OF_PERICENTER":285.6681,"MEAN_ANOMALY":74.2653,"EPHEMERIS_TYPE":0,"CLASSIFICATION_TYPE":"U","NORAD_CAT_ID":20625,"ELEMENT_SET_NO":999,"REV_AT_EPOCH":84988,"BSTAR":6.2199e-5,"MEAN_MOTION_DOT":7.3e-7,"MEAN_MOTION_DDOT":0},{"OBJECT_NAME":"COSMOS 2084","OBJECT_ID":"1990-055A","EPOCH":"2026-03-20T14:43:43.991040","MEAN_MOTION":15.05707002,"ECCENTRICITY":0.00154248,"INCLINATION":62.7889,"RA_OF_ASC_NODE":298.3185,"ARG_OF_PERICENTER":193.0258,"MEAN_ANOMALY":167.0447,"EPHEMERIS_TYPE":0,"CLASSIFICATION_TYPE":"U","NORAD_CAT_ID":20663,"ELEMENT_SET_NO":999,"REV_AT_EPOCH":93796,"BSTAR":0.0001460998,"MEAN_MOTION_DOT":1.925e-5,"MEAN_MOTION_DDOT":0},{"OBJECT_NAME":"SL-6 R/B(2)","OBJECT_ID":"1990-055D","EPOCH":"2026-03-20T09:52:59.766240","MEAN_MOTION":15.03644129,"ECCENTRICITY":0.00264812,"INCLINATION":62.7816,"RA_OF_ASC_NODE":217.386,"ARG_OF_PERICENTER":349.5511,"MEAN_ANOMALY":10.5034,"EPHEMERIS_TYPE":0,"CLASSIFICATION_TYPE":"U","NORAD_CAT_ID":20666,"ELEMENT_SET_NO":999,"REV_AT_EPOCH":93980,"BSTAR":0.00014218331,"MEAN_MOTION_DOT":1.767e-5,"MEAN_MOTION_DDOT":0},{"OBJECT_NAME":"SL-8 R/B","OBJECT_ID":"1990-078B","EPOCH":"2026-03-20T11:02:25.949184","MEAN_MOTION":14.89380797,"ECCENTRICITY":0.03600366,"INCLINATION":82.9008,"RA_OF_ASC_NODE":241.6196,"ARG_OF_PERICENTER":337.7231,"MEAN_ANOMALY":20.867,"EPHEMERIS_TYPE":0,"CLASSIFICATION_TYPE":"U","NORAD_CAT_ID":20775,"ELEMENT_SET_NO":999,"REV_AT_EPOCH":81090,"BSTAR":0.0003194333,"MEAN_MOTION_DOT":0.00010813,"MEAN_MOTION_DDOT":0}]
